{
    "links": {
        "self": "http://www.neowsapp.com/rest/v1/neo/54054625?api_key=iIulBulltgU6a56xZRHN4H3l9WmuAYTsLGpBGhQ2"
    },
    "id": "54054625",
    "neo_reference_id": "54054625",
    "name": "(2020 RG10)",
    "designation": "2020 RG10",
    "nasa_jpl_url": "http://ssd.jpl.nasa.gov/sbdb.cgi?sstr=54054625",
    "absolute_magnitude_h": 28.937,
    "estimated_diameter": {
        "kilometers": {
            "estimated_diameter_min": 0.004336656,
            "estimated_diameter_max": 0.0096970577
        },
        "meters": {
            "estimated_diameter_min": 4.3366560297,
            "estimated_diameter_max": 9.6970576775
        },
        "miles": {
            "estimated_diameter_min": 0.0026946723,
            "estimated_diameter_max": 0.0060254704
        },
        "feet": {
            "estimated_diameter_min": 14.2278745686,
            "estimated_diameter_max": 31.8144947107
        }
    },
    "is_potentially_hazardous_asteroid": false,
    "close_approach_data": [
        {
            "close_approach_date": "2020-09-10",
            "close_approach_date_full": "2020-Sep-10 11:33",
            "epoch_date_close_approach": 1599737580000,
            "relative_velocity": {
                "kilometers_per_second": "13.3738212421",
                "kilometers_per_hour": "48145.7564714804",
                "miles_per_hour": "29915.9007364041"
            },
            "miss_distance": {
                "astronomical": "0.0009087664",
                "lunar": "0.3535101296",
                "kilometers": "135949.517767568",
                "miles": "84475.1131777184"
            },
            "orbiting_body": "Earth"
        },
        {
            "close_approach_date": "2020-09-10",
            "close_approach_date_full": "2020-Sep-10 14:34",
            "epoch_date_close_approach": 1599748440000,
            "relative_velocity": {
                "kilometers_per_second": "14.2400525294",
                "kilometers_per_hour": "51264.1891057223",
                "miles_per_hour": "31853.5735029417"
            },
            "miss_distance": {
                "astronomical": "0.003222106",
                "lunar": "1.253399234",
                "kilometers": "482020.19451422",
                "miles": "299513.460247436"
            },
            "orbiting_body": "Moon"
        },
        {
            "close_approach_date": "2020-11-01",
            "close_approach_date_full": "2020-Nov-01 02:56",
            "epoch_date_close_approach": 1604199360000,
            "relative_velocity": {
                "kilometers_per_second": "13.9920167103",
                "kilometers_per_hour": "50371.2601570652",
                "miles_per_hour": "31298.7421792609"
            },
            "miss_distance": {
                "astronomical": "0.0248933815",
                "lunar": "9.6835254035",
                "kilometers": "3723996.849497405",
                "miles": "2313984.341397989"
            },
            "orbiting_body": "Mars"
        }
    ],
    "orbital_data": {
        "orbit_id": "1",
        "orbit_determination_date": "2020-09-24 19:42:15",
        "first_observation_date": "2020-09-13",
        "last_observation_date": "2020-09-16",
        "data_arc_in_days": 3,
        "observations_used": 19,
        "orbit_uncertainty": "7",
        "minimum_orbit_intersection": ".000571135",
        "jupiter_tisserand_invariant": "3.417",
        "epoch_osculation": "2459000.5",
        "eccentricity": ".6002192367735475",
        "semi_major_axis": "2.186139182406782",
        "inclination": "1.028679939546696",
        "ascending_node_longitude": "169.5757310407219",
        "orbital_period": "1180.633601155767",
        "perihelion_distance": ".8739763908618361",
        "perihelion_argument": "128.6783070478627",
        "aphelion_distance": "3.498301973951728",
        "perihelion_time": "2459067.106082504215",
        "mean_anomaly": "339.6904054924031",
        "mean_motion": ".3049210183816405",
        "equinox": "J2000",
        "orbit_class": {
            "orbit_class_type": "APO",
            "orbit_class_description": "Near-Earth asteroid orbits which cross the Earth’s orbit similar to that of 1862 Apollo",
            "orbit_class_range": "a (semi-major axis) > 1.0 AU; q (perihelion) < 1.017 AU"
        }
    },
    "is_sentry_object": false
}